COSMO-SKYMED 2          
1 32376U 07059A   26198.94585380  .00000149  00000+0  25277-4 0  9990
2 32376  97.8896  22.0990 0001456  93.8789 266.2591 14.82151728  6569
COSMO-SKYMED 3          
1 33412U 08054A   26198.95120198  .00002705  00000+0  18396-3 0  9994
2 33412  97.8244  58.0301 0015960 157.3808 202.8126 15.07128915961577
COSMO-SKYMED 4          
1 37216U 10060A   26198.95851947  .00000406  00000+0  57551-4 0  9996
2 37216  97.8891  22.1129 0001540  84.6189 275.5200 14.82151545849127
CYGFM04                 
1 41885U 16078B   26198.88405001  .00021075  00000+0  22258-3 0  9996
2 41885  34.9329  23.1976 0004121 116.7383 243.3765 15.63194228533803
CYGFM02                 
1 41886U 16078C   26198.88671311  .00025902  00000+0  23946-3 0  9994
2 41886  34.9411  16.7705 0004866 119.2555 240.8659 15.66500155533985
CYGFM01                 
1 41887U 16078D   26198.92401583  .00016499  00000+0  20780-3 0  9996
2 41887  34.9400  57.6492 0005430  58.6264 301.4992 15.58661886533504
CYGFM03                 
1 41891U 16078H   26198.88483737  .00019812  00000+0  22227-3 0  9997
2 41891  34.9407  26.8882 0004306  97.8498 262.2717 15.61657157533770
CSG-1                   
1 44873U 19092A   26198.97118747  .00000147  00000+0  25086-4 0  9993
2 44873  97.8897  22.1293 0001431  95.0987 265.0390 14.82158104356038
CSG-2                   
1 51444U 22008A   26198.93740777 -.00001097  00000+0 -13122-3 0  9990
2 51444  97.8890  22.0895 0001615  89.7164 270.4234 14.82174923241140
CSG-3                   
1 67304U 26001A   26198.91635052  .00000105  00000+0  19802-4 0  9995
2 67304  97.8897  22.0743 0001527  93.4423 266.6964 14.82152966 29013
